"CCSDS_OMM_VERS","COMMENT","CREATION_DATE","ORIGINATOR","OBJECT_NAME","OBJECT_ID","CENTER_NAME","REF_FRAME","TIME_SYSTEM","MEAN_ELEMENT_THEORY","EPOCH","MEAN_MOTION","ECCENTRICITY","INCLINATION","RA_OF_ASC_NODE","ARG_OF_PERICENTER","MEAN_ANOMALY","EPHEMERIS_TYPE","CLASSIFICATION_TYPE","NORAD_CAT_ID","ELEMENT_SET_NO","REV_AT_EPOCH","BSTAR","MEAN_MOTION_DOT","MEAN_MOTION_DDOT","SEMIMAJOR_AXIS","PERIOD","APOAPSIS","PERIAPSIS","OBJECT_TYPE","RCS_SIZE","COUNTRY_CODE","LAUNCH_DATE","SITE","DECAY_DATE","FILE","GP_ID","TLE_LINE0","TLE_LINE1","TLE_LINE2"
"2.0","GENERATED VIA SPACE-TRACK.ORG API","2022-04-12T22:16:11","18 SPCS","CARTOSAT 3","2019-081A","EARTH","TEME","UTC","SGP4","2022-04-12T17:08:46.096224","15.19302649","0.00142420","97.4045","165.6147","90.2498","26.2478","0","U","44804","999","13165","0.00021057000000","0.00004388","0.0000000000000","6886.084","94.780","517.756","498.142","PAYLOAD","LARGE","IND","2019-11-27","SRI",null,"3398543","201063597","0 CARTOSAT 3","1 44804U 19081A   22102.71442241  .00004388  00000-0  21057-3 0  9992","2 44804  97.4045 165.6147 0014242  90.2498  26.2478 15.19302649131651"
"2.0","GENERATED VIA SPACE-TRACK.ORG API","2022-04-13T02:52:26","18 SPCS","CARTOSAT 3","2019-081A","EARTH","TEME","UTC","SGP4","2022-04-12T22:08:12.767136","15.19302321","0.00142120","97.4044","165.8185","89.5999","83.5329","0","U","44804","999","13168","0.00018447000000","0.00003835","0.0000000000000","6886.085","94.780","517.736","498.163","PAYLOAD","LARGE","IND","2019-11-27","SRI",null,"3398892","201090771","0 CARTOSAT 3","1 44804U 19081A   22102.92236999  .00003835  00000-0  18447-3 0  9991","2 44804  97.4044 165.8185 0014212  89.5999  83.5329 15.19302321131689"
"2.0","GENERATED VIA SPACE-TRACK.ORG API","2022-04-13T06:26:12","18 SPCS","CARTOSAT 3","2019-081A","EARTH","TEME","UTC","SGP4","2022-04-13T02:22:34.456224","15.19303027","0.00142080","97.4045","165.9918","89.2309","329.4151","0","U","44804","999","13171","0.00017106000000","0.00003552","0.0000000000000","6886.083","94.780","517.732","498.164","PAYLOAD","LARGE","IND","2019-11-27","SRI",null,"3398943","201096774","0 CARTOSAT 3","1 44804U 19081A   22103.09900991  .00003552  00000-0  17106-3 0  9997","2 44804  97.4045 165.9918 0014208  89.2309 329.4151 15.19303027131715"
"2.0","GENERATED VIA SPACE-TRACK.ORG API","2022-04-13T14:16:11","18 SPCS","CARTOSAT 3","2019-081A","EARTH","TEME","UTC","SGP4","2022-04-13T12:04:38.569152","15.19307700","0.00143560","97.4038","166.3877","85.9185","22.1627","0","U","44804","999","13177","0.00019916000000","0.00004147","0.0000000000000","6886.069","94.780","517.819","498.048","PAYLOAD","LARGE","IND","2019-11-27","SRI",null,"3399414","201108329","0 CARTOSAT 3","1 44804U 19081A   22103.50322418  .00004147  00000-0  19916-3 0  9997","2 44804  97.4038 166.3877 0014356  85.9185  22.1627 15.19307700131778"
"2.0","GENERATED VIA SPACE-TRACK.ORG API","2022-04-13T22:16:12","18 SPCS","CARTOSAT 3","2019-081A","EARTH","TEME","UTC","SGP4","2022-04-13T18:29:47.692032","15.19309400","0.00143600","97.4040","166.6498","85.2581","44.7987","0","U","44804","999","13181","0.00019591000000","0.00004079","0.0000000000000","6886.064","94.780","517.817","498.040","PAYLOAD","LARGE","IND","2019-11-27","SRI",null,"3400038","201145652","0 CARTOSAT 3","1 44804U 19081A   22103.77069088  .00004079  00000-0  19591-3 0  9990","2 44804  97.4040 166.6498 0014360  85.2581  44.7987 15.19309400131814"
"2.0","GENERATED VIA SPACE-TRACK.ORG API","2022-04-14T03:41:11","18 SPCS","CARTOSAT 3","2019-081A","EARTH","TEME","UTC","SGP4","2022-04-13T21:35:23.462304","15.19309874","0.00143430","97.4040","166.7761","84.8886","29.6594","0","U","44804","999","13183","0.00019274000000","0.00004011","0.0000000000000","6886.062","94.780","517.804","498.050","PAYLOAD","LARGE","IND","2019-11-27","SRI",null,"3400454","201173670","0 CARTOSAT 3","1 44804U 19081A   22103.89957711  .00004011  00000-0  19274-3 0  9996","2 44804  97.4040 166.7761 0014343  84.8886  29.6594 15.19309874131835"
"2.0","GENERATED VIA SPACE-TRACK.ORG API","2022-04-14T06:26:11","18 SPCS","CARTOSAT 3","2019-081A","EARTH","TEME","UTC","SGP4","2022-04-14T02:05:26.729088","15.19311207","0.00143440","97.4040","166.9600","84.3036","335.3301","0","U","44804","999","13186","0.00019147000000","0.00003985","0.0000000000000","6886.058","94.780","517.800","498.046","PAYLOAD","LARGE","IND","2019-11-27","SRI",null,"3400510","201178677","0 CARTOSAT 3","1 44804U 19081A   22104.08711492  .00003985  00000-0  19147-3 0  9990","2 44804  97.4040 166.9600 0014344  84.3036 335.3301 15.19311207131861"
"2.0","GENERATED VIA SPACE-TRACK.ORG API","2022-04-14T14:16:11","18 SPCS","CARTOSAT 3","2019-081A","EARTH","TEME","UTC","SGP4","2022-04-14T10:10:30.605376","15.19313625","0.00143340","97.4039","167.2902","83.2800","17.5867","0","U","44804","999","13191","0.00019016000000","0.00003957","0.0000000000000","6886.051","94.780","517.786","498.045","PAYLOAD","LARGE","IND","2019-11-27","SRI",null,"3401065","201191113","0 CARTOSAT 3","1 44804U 19081A   22104.42396534  .00003957  00000-0  19016-3 0  9998","2 44804  97.4039 167.2902 0014334  83.2800  17.5867 15.19313625131912"
"2.0","GENERATED VIA SPACE-TRACK.ORG API","2022-04-14T21:29:34","18 SPCS","CARTOSAT 3","2019-081A","EARTH","TEME","UTC","SGP4","2022-04-14T13:29:28.355136","15.19314600","0.00143220","97.4039","167.4257","82.8616","53.2384","0","U","44804","999","13193","0.00018921000000","0.00003937","0.0000000000000","6886.048","94.780","517.775","498.051","PAYLOAD","LARGE","IND","2019-11-27","SRI",null,"3401567","201222063","0 CARTOSAT 3","1 44804U 19081A   22104.56213374  .00003937  00000-0  18921-3 0  9995","2 44804  97.4039 167.4257 0014322  82.8616  53.2384 15.19314600131931"
"2.0","GENERATED VIA SPACE-TRACK.ORG API","2022-04-14T22:16:12","18 SPCS","CARTOSAT 3","2019-081A","EARTH","TEME","UTC","SGP4","2022-04-14T18:08:11.448384","15.19314944","0.00142720","97.4040","167.6156","82.4164","31.6525","0","U","44804","999","13196","0.00018263000000","0.00003798","0.0000000000000","6886.047","94.780","517.740","498.084","PAYLOAD","LARGE","IND","2019-11-27","SRI",null,"3401581","201227737","0 CARTOSAT 3","1 44804U 19081A   22104.75568806  .00003798  00000-0  18263-3 0  9993","2 44804  97.4040 167.6156 0014272  82.4164  31.6525 15.19314944131962"
"2.0","GENERATED VIA SPACE-TRACK.ORG API","2022-04-15T06:26:12","18 SPCS","CARTOSAT 3","2019-081A","EARTH","TEME","UTC","SGP4","2022-04-15T03:20:48.550848","15.19317072","0.00142010","97.4038","167.9914","81.2690","330.4606","0","U","44804","999","13202","0.00017753000000","0.00003690","0.0000000000000","6886.040","94.779","517.684","498.126","PAYLOAD","LARGE","IND","2019-11-27","SRI",null,"3402004","201260761","0 CARTOSAT 3","1 44804U 19081A   22105.13945082  .00003690  00000-0  17753-3 0  9995","2 44804  97.4038 167.9914 0014201  81.2690 330.4606 15.19317072132020"
"2.0","GENERATED VIA SPACE-TRACK.ORG API","2022-04-15T14:16:12","18 SPCS","CARTOSAT 3","2019-081A","EARTH","TEME","UTC","SGP4","2022-04-15T11:30:15.051168","15.19319210","0.00141890","97.4038","168.3248","80.1616","29.4230","0","U","44804","999","13207","0.00017498000000","0.00003636","0.0000000000000","6886.034","94.779","517.669","498.128","PAYLOAD","LARGE","IND","2019-11-27","SRI",null,"3402606","201273526","0 CARTOSAT 3","1 44804U 19081A   22105.47934087  .00003636  00000-0  17498-3 0  9991","2 44804  97.4038 168.3248 0014189  80.1616  29.4230 15.19319210132075"
"2.0","GENERATED VIA SPACE-TRACK.ORG API","2022-04-15T19:21:04","18 SPCS","CARTOSAT 3","2019-081A","EARTH","TEME","UTC","SGP4","2022-04-15T14:52:30.412416","15.19320076","0.00142020","97.4038","168.4626","79.6046","77.7176","0","U","44804","999","13209","0.00017367000000","0.00003609","0.0000000000000","6886.031","94.779","517.676","498.117","PAYLOAD","LARGE","IND","2019-11-27","SRI",null,"3403095","201304897","0 CARTOSAT 3","1 44804U 19081A   22105.61979644  .00003609  00000-0  17367-3 0  9990","2 44804  97.4038 168.4626 0014202  79.6046  77.7176 15.19320076132091"
"2.0","GENERATED VIA SPACE-TRACK.ORG API","2022-04-15T22:16:11","18 SPCS","CARTOSAT 3","2019-081A","EARTH","TEME","UTC","SGP4","2022-04-15T17:50:34.531872","15.19320732","0.00141910","97.4037","168.5838","79.1696","34.0777","0","U","44804","999","13211","0.00017212000000","0.00003576","0.0000000000000","6886.029","94.779","517.666","498.122","PAYLOAD","LARGE","IND","2019-11-27","SRI",null,"3403114","201310646","0 CARTOSAT 3","1 44804U 19081A   22105.74345523  .00003576  00000-0  17212-3 0  9999","2 44804  97.4037 168.5838 0014191  79.1696  34.0777 15.19320732132114"
"2.0","GENERATED VIA SPACE-TRACK.ORG API","2022-04-16T04:16:55","18 SPCS","CARTOSAT 3","2019-081A","EARTH","TEME","UTC","SGP4","2022-04-15T22:50:53.674368","15.19321744","0.00141870","97.4037","168.7882","78.5717","94.6472","0","U","44804","999","13214","0.00016919000000","0.00003514","0.0000000000000","6886.026","94.779","517.660","498.122","PAYLOAD","LARGE","IND","2019-11-27","SRI",null,"3403567","201338808","0 CARTOSAT 3","1 44804U 19081A   22105.95201012  .00003514  00000-0  16919-3 0  9991","2 44804  97.4037 168.7882 0014187  78.5717  94.6472 15.19321744132148"
"2.0","GENERATED VIA SPACE-TRACK.ORG API","2022-04-16T06:26:11","18 SPCS","CARTOSAT 3","2019-081A","EARTH","TEME","UTC","SGP4","2022-04-16T03:04:02.854848","15.19322781","0.00141220","97.4039","168.9607","78.2512","335.9068","0","U","44804","999","13217","0.00016701000000","0.00003468","0.0000000000000","6886.023","94.779","517.613","498.164","PAYLOAD","LARGE","IND","2019-11-27","SRI",null,"3403577","201346006","0 CARTOSAT 3","1 44804U 19081A   22106.12781082  .00003468  00000-0  16701-3 0  9998","2 44804  97.4039 168.9607 0014122  78.2512 335.9068 15.19322781132173"
